KUIPER-00192            
1 68575U 26072C   26099.50267281  .00020456  00000+0  55633-3 0  9996
2 68575  51.8740 149.0824 0005239 113.2812 246.8727 15.37501946   819
