{
  "norad_id": 68575,
  "name": "KUIPER-00192",
  "history": [
    {
      "epoch": "2026-04-09T12:03:50.930784Z",
      "apogee_km": 457.078201317373,
      "perigee_km": 449.92001300429,
      "latitude_deg": 2.9092744425431826e-05,
      "longitude_deg": 130.3702707102809,
      "height_km": 455.6694421291539,
      "semi_major_axis_km": 6831.636107160832,
      "eccentricity": 0.0005239,
      "inclination_deg": 51.874,
      "raan_deg": 149.0824,
      "arg_perigee_deg": 113.2812,
      "mean_anomaly_deg": 246.8727,
      "mean_motion_rev_day": 15.37501946
    }
  ]
}